OBJECT_NAME,OBJECT_ID,EPOCH,MEAN_MOTION,ECCENTRICITY,INCLINATION,RA_OF_ASC_NODE,ARG_OF_PERICENTER,MEAN_ANOMALY,EPHEMERIS_TYPE,CLASSIFICATION_TYPE,NORAD_CAT_ID,ELEMENT_SET_NO,REV_AT_EPOCH,BSTAR,MEAN_MOTION_DOT,MEAN_MOTION_DDOT
GAOFEN-11 01,2018-063A,2026-07-18T22:44:51.393120,15.56137637,.00036371,97.1269,266.7527,184.0814,176.0412,0,U,43585,999,44528,.1170828E-3,.8085E-4,0
ICESAT-2,2018-070A,2026-07-18T21:54:17.069184,15.28214378,.00052258,92.0089,299.5529,50.6032,309.5679,0,U,43613,999,43730,.17479072E-3,.4806E-4,0
HYSIS,2018-096A,2026-07-18T22:46:21.705312,14.78674312,.0001772,97.9822,266.4454,83.9538,276.1875,0,U,43719,999,41211,.9128693E-4,.617E-5,0
KAZSTSAT,2018-099AB,2026-07-18T12:27:10.696320,14.99957675,.00072224,97.4313,230.0361,327.1686,32.9088,0,U,43783,999,41600,.12223477E-4,.96E-6,0
SAUDISAT 5A,2018-102A,2026-07-18T23:41:43.276416,15.28342806,.00100848,97.3046,260.9585,31.5127,328.6715,0,U,43831,999,42053,.10212494E-3,.2748E-4,0
SAUDISAT 5B,2018-102C,2026-07-18T22:27:08.234208,15.28584460,.00108667,97.3155,264.0350,32.9912,327.2004,0,U,43833,999,42064,.96103097E-4,.2602E-4,0
GAOFEN-10R,2019-066A,2026-07-18T22:22:15.652704,14.83061622,.00066704,98.0511,153.7451,42.9111,317.2622,0,U,44622,999,36708,.72966877E-4,.539E-5,0
CARTOSAT-3,2019-081A,2026-07-18T23:16:02.519040,15.19199270,.00126692,97.4283,261.3217,46.9079,313.3213,0,U,44804,999,36829,.1015572E-3,.2073E-4,0
GAOFEN-12 01,2019-082A,2026-07-18T21:55:13.876320,14.80481134,.00007906,97.8111,205.4569,60.5933,299.5359,0,U,44819,999,35878,.25917596E-4,.148E-5,0
CSG-1,2019-092A,2026-07-18T23:36:44.048160,14.82158476,.00014512,97.8898,23.1274,95.2123,264.9256,0,U,44873,999,35618,.2277793E-4,.129E-5,0
NEMO-HD,2020-061F,2026-07-18T22:22:42.947328,15.45185967,.00010233,97.1895,261.5750,107.9293,252.2068,0,U,46277,999,32688,.13557289E-3,.6344E-4,0
SENTINEL-6A,2020-086A,2026-07-18T20:41:50.318016,12.80930241,.00077776,66.0412,69.2636,269.6697,90.3427,0,U,46984,999,26438,.29375684E-4,-.54E-6,0
CAS500-1,2021-022A,2026-07-18T23:42:44.563392,15.20154639,.00055781,97.3856,94.5910,158.4839,201.6632,0,U,47932,999,29559,.142519E-3,.3016E-4,0
GAOFEN-12 02,2021-026A,2026-07-18T23:53:24.829728,14.80317562,.00060271,97.9937,198.0485,122.3142,237.8654,0,U,48079,999,28646,.26060858E-4,.146E-5,0
PLEIADES NEO 3,2021-034A,2026-07-18T22:13:15.808224,14.81671974,.00014015,97.8938,274.2361,95.1992,264.9381,0,U,48268,999,28235,.41477782E-4,.274E-5,0
PLEIADES NEO 4,2021-073E,2026-07-18T11:41:08.462400,14.81674771,.00013179,97.8937,273.7994,95.2302,264.9061,0,U,49070,999,26600,.53928827E-4,.372E-5,0
LANDSAT 9,2021-088A,2026-07-18T18:49:58.662336,14.57096977,.0001092,98.2267,269.5772,91.0107,269.1216,0,U,49260,999,25560,.42939188E-4,.148E-5,0
CSG-2,2022-008A,2026-07-18T21:10:51.547584,14.82178109,.00016453,97.8894,23.0212,89.8844,270.2558,0,U,51444,999,24128,.12126425E-3,.914E-5,0
GAOFEN-12 03,2022-069A,2026-07-18T23:06:56.496960,14.80077936,.00023732,97.8233,87.0265,68.0331,292.1134,0,U,52912,999,21931,.27611769E-4,.159E-5,0
SWOT,2022-173A,2026-07-18T22:16:43.655520,14.00172492,.0000234,77.6115,352.4583,66.2426,293.8750,0,U,54754,999,18359,-.23865287E-4,-.38E-6,0
GAOFEN-12 04,2023-123A,2026-07-18T21:59:01.760640,14.79779100,.0003323,97.9098,117.4586,42.6148,317.5321,0,U,57654,999,15732,.6586071E-4,.444E-5,0
PARS 1,2024-039Q,2026-07-18T23:08:15.595296,15.46339786,.0009296,97.4846,181.9034,14.3945,345.7567,0,U,59065,999,13355,.13776856E-3,.6713E-4,0
RESURS-P 4,2024-061A,2026-07-18T22:29:28.322304,15.32292856,.00032122,97.2760,147.2886,83.8889,276.2719,0,U,59371,999,12862,.53907948E-4,.1605E-4,0
LEGION 1,2024-081A,2026-07-18T23:01:20.140896,15.16857593,.00077943,97.5009,277.4795,254.0306,106.0069,0,U,59625,999,12235,.90825222E-4,.1721E-4,0
LEGION 2,2024-081B,2026-07-18T22:10:10.514784,15.16836969,.00105061,97.5009,277.5409,219.2278,140.8195,0,U,59626,999,12235,.96599048E-4,.1834E-4,0
ALOS-4 (DAICHI-4),2024-123A,2026-07-18T22:42:11.301696,14.79475583,.00015442,97.9221,296.6660,97.7640,262.3747,0,U,60182,999,11057,.94394491E-4,.654E-5,0
LEGION 3,2024-146A,2026-07-18T21:29:43.872288,15.15666844,.00078543,45.0015,220.5536,354.1766,5.9020,0,U,60452,999,10683,.71348931E-4,.1116E-4,0
LEGION 4,2024-146B,2026-07-18T16:44:32.311680,15.15694463,.00091469,45.0024,313.4828,135.3401,224.8216,0,U,60453,999,10565,.9579681E-4,.1591E-4,0
SENTINEL-2C,2024-157A,2026-07-18T18:44:34.478304,14.30816271,.00010223,98.5682,274.1142,105.5193,254.6103,0,U,60989,999,9750,.30437091E-4,.36E-6,0
IONOSFERA-M 1,2024-199A,2026-07-18T21:51:26.414496,14.22759658,.00021083,98.7130,72.7418,67.6825,292.4576,0,U,61735,999,13221,.26254945E-4,.15E-6,0
