GAOFEN-11 01            
1 43585U 18063A   26199.94781705  .00008085  00000+0  11708-3 0  9991
2 43585  97.1269 266.7527 0003637 184.0814 176.0412 15.56137637445289
ICESAT-2                
1 43613U 18070A   26199.91269756  .00004806  00000+0  17479-3 0  9993
2 43613  92.0089 299.5529 0005225  50.6032 309.5679 15.28214378437305
HYSIS                   
1 43719U 18096A   26199.94886233  .00000617  00000+0  91287-4 0  9992
2 43719  97.9822 266.4454 0001772  83.9538 276.1875 14.78674312412115
KAZSTSAT                
1 43783U 18099AB  26199.51887380  .00000096  00000+0  12223-4 0  9997
2 43783  97.4313 230.0361 0007222 327.1686  32.9088 14.99957675416008
SAUDISAT 5A             
1 43831U 18102A   26199.98730644  .00002748  00000+0  10212-3 0  9998
2 43831  97.3046 260.9585 0010084  31.5127 328.6715 15.28342806420532
SAUDISAT 5B             
1 43833U 18102C   26199.93551197  .00002602  00000+0  96103-4 0  9992
2 43833  97.3155 264.0350 0010866  32.9912 327.2004 15.28584460420647
GAOFEN-10R              
1 44622U 19066A   26199.93212561  .00000539  00000+0  72967-4 0  9997
2 44622  98.0511 153.7451 0006670  42.9111 317.2622 14.83061622367087
CARTOSAT-3              
1 44804U 19081A   26199.96947360  .00002073  00000+0  10156-3 0  9997
2 44804  97.4283 261.3217 0012669  46.9079 313.3213 15.19199270368294
GAOFEN-12 01            
1 44819U 19082A   26199.91335505  .00000148  00000+0  25918-4 0  9995
2 44819  97.8111 205.4569 0000790  60.5933 299.5359 14.80481134358785
CSG-1                   
1 44873U 19092A   26199.98384315  .00000129  00000+0  22778-4 0  9996
2 44873  97.8898  23.1274 0001451  95.2123 264.9256 14.82158476356182
NEMO-HD                 
1 46277U 20061F   26199.93244152  .00006344  00000+0  13557-3 0  9992
2 46277  97.1895 261.5750 0001023 107.9293 252.2068 15.45185967326883
SENTINEL-6A             
1 46984U 20086A   26199.86238794 -.00000054  00000+0  29376-4 0  9991
2 46984  66.0412  69.2636 0007777 269.6697  90.3427 12.80930241264385
CAS500-1                
1 47932U 21022A   26199.98801578  .00003016  00000+0  14252-3 0  9991
2 47932  97.3856  94.5910 0005578 158.4839 201.6632 15.20154639295592
GAOFEN-12 02            
1 48079U 21026A   26199.99542627  .00000146  00000+0  26061-4 0  9999
2 48079  97.9937 198.0485 0006027 122.3142 237.8654 14.80317562286467
PLEIADES NEO 3          
1 48268U 21034A   26199.92587741  .00000274  00000+0  41478-4 0  9998
2 48268  97.8938 274.2361 0001401  95.1992 264.9381 14.81671974282351
PLEIADES NEO 4          
1 49070U 21073E   26199.48690350  .00000372  00000+0  53929-4 0  9998
2 49070  97.8937 273.7994 0001317  95.2302 264.9061 14.81674771266007
LANDSAT 9               
1 49260U 21088A   26199.78470674  .00000148  00000+0  42939-4 0  9993
2 49260  98.2267 269.5772 0001092  91.0107 269.1216 14.57096977255605
CSG-2                   
1 51444U 22008A   26199.88254106  .00000914  00000+0  12126-3 0  9999
2 51444  97.8894  23.0212 0001645  89.8844 270.2558 14.82178109241289
GAOFEN-12 03            
1 52912U 22069A   26199.96315390  .00000159  00000+0  27612-4 0  9997
2 52912  97.8233  87.0265 0002373  68.0331 292.1134 14.80077936219310
SWOT                    
1 54754U 22173A   26199.92828305 -.00000038  00000+0 -23865-4 0  9994
2 54754  77.6115 352.4583 0000234  66.2426 293.8750 14.00172492183599
GAOFEN-12 04            
1 57654U 23123A   26199.91599260  .00000444  00000+0  65861-4 0  9997
2 57654  97.9098 117.4586 0003323  42.6148 317.5321 14.79779100157324
PARS 1                  
1 59065U 24039Q   26199.96406939  .00006713  00000+0  13777-3 0  9990
2 59065  97.4846 181.9034 0009296  14.3945 345.7567 15.46339786133559
RESURS-P 4              
1 59371U 24061A   26199.93713336  .00001605  00000+0  53908-4 0  9990
2 59371  97.2760 147.2886 0003212  83.8889 276.2719 15.32292856128622
LEGION 1                
1 59625U 24081A   26199.95926089  .00001721  00000+0  90825-4 0  9995
2 59625  97.5009 277.4795 0007794 254.0306 106.0069 15.16857593122352
LEGION 2                
1 59626U 24081B   26199.92373281  .00001834  00000+0  96599-4 0  9992
2 59626  97.5009 277.5409 0010506 219.2278 140.8195 15.16836969122352
ALOS-4 (DAICHI-4)       
1 60182U 24123A   26199.94596414  .00000654  00000+0  94394-4 0  9995
2 60182  97.9221 296.6660 0001544  97.7640 262.3747 14.79475583110579
LEGION 3                
1 60452U 24146A   26199.89564667  .00001116  00000+0  71349-4 0  9998
2 60452  45.0015 220.5536 0007854 354.1766   5.9020 15.15666844106833
LEGION 4                
1 60453U 24146B   26199.69759620  .00001591  00000+0  95797-4 0  9992
2 60453  45.0024 313.4828 0009146 135.3401 224.8216 15.15694463105657
SENTINEL-2C             
1 60989U 24157A   26199.78095461  .00000036  00000+0  30437-4 0  9997
2 60989  98.5682 274.1142 0001022 105.5193 254.6103 14.30816271 97507
IONOSFERA-M 1           
1 61735U 24199A   26199.91072239  .00000015  00000+0  26255-4 0  9996
2 61735  98.7130  72.7418 0002108  67.6825 292.4576 14.22759658132219
